1 37673U 11024A   14157.04971582  .00000296  00000-0  54640-4 0  9998
2 37673 098.0106 164.4204 0001492 103.4282 321.7375 14.72337841160598
1 37673U 11024A   14158.49341781  .00000240  00000-0  45753-4 0  9994
2 37673 098.0106 165.8435 0001496 104.2207 048.5539 14.72339266160802
1 37673U 11024A   14159.50591456  .00000247  00000-0  46799-4 0  9991
2 37673 098.0106 166.8415 0001511 107.1991 008.9981 14.72340606160958
1 37673U 11024A   14160.66481295  .00000353  00000-0  63595-4 0  9990
2 37673 098.0106 167.9839 0001493 104.4140 030.7369 14.72341915161122
1 37673U 11024A   14161.68283304  .00000320  00000-0  58402-4 0  9999
2 37673 098.0107 168.9874 0001481 103.6232 024.2190 14.72342969161279
1 37673U 11024A   14163.09352870  .00000393  00000-0  69914-4 0  9991
2 37673 098.0083 170.3763 0000376 049.9922 350.5736 14.72296795161485
1 37673U 11024A   14164.11288181  .00000404  00000-0  71800-4 0  9998
2 37673 098.0108 171.3825 0001276 107.5236 292.6365 14.72296168161637
1 37673U 11024A   14165.13262699  .00000399  00000-0  70876-4 0  9992
2 37673 098.0110 172.3875 0001276 107.9081 293.9141 14.72297215161784
1 37673U 11024A   14166.51444843  .00000356  00000-0  64173-4 0  9994
2 37673 098.0110 173.7493 0001324 114.6983 046.7334 14.72298757161987
1 37673U 11024A   14167.66483600  .00000442  00000-0  77708-4 0  9999
2 37673 098.0109 174.8833 0001300 111.2003 023.9282 14.72298953162152
1 37673U 11024A   14168.93065080 -.00002653  00000-0  00000+0 0  9991
2 37673 098.0127 176.1306 0001717 093.2176 266.9721 14.72277086162346
1 37673U 11024A   14169.00852142  .00000238  00000-0  45526-4 0  9996
2 37673 098.0108 176.2078 0001295 110.2996 302.4391 14.72300372162358
1 37673U 11024A   14170.09362579  .00000263  00000-0  49358-4 0  9992
2 37673 098.0108 177.2774 0001301 110.4244 290.2038 14.72301213162513
1 37673U 11024A   14171.11336039  .00000209  00000-0  40835-4 0  9999
2 37673 098.0107 178.2826 0001307 110.6551 291.5975 14.72301608162668
1 37673U 11024A   14172.13270689  .00000211  00000-0  41160-4 0  9995
2 37673 098.0106 179.2874 0001310 111.0695 290.7533 14.72302335162815
1 37673U 11024A   14173.50589049  .00000208  00000-0  40662-4 0  9992
2 37673 098.0106 180.6409 0001335 112.4625 003.2401 14.72303171163013
1 37673U 11024A   14174.66491846  .00000164  00000-0  33813-4 0  9998
2 37673 098.0107 181.7833 0001339 112.7338 022.4514 14.72303765163180
1 37673U 11024A   14176.07339631  .00000137  00000-0  29528-4 0  9996
2 37673 098.0108 183.1714 0001370 114.7217 281.3086 14.72303897163397
1 37673U 11024A   14177.09369442  .00000122  00000-0  27067-4 0  9992
2 37673 098.0109 184.1769 0001401 116.4312 284.2178 14.72304347163541
1 37673U 11024A   14178.11301170  .00000119  00000-0  26697-4 0  9994
2 37673 098.0110 185.1815 0001385 114.2541 285.8208 14.72304676163699
1 37673U 11024A   14179.13276321  .00000121  00000-0  27021-4 0  9991
2 37673 098.0111 186.1866 0001379 112.8625 288.9400 14.72305121163848
1 37673U 11024A   14180.50578639  .00000156  00000-0  32446-4 0  9996
2 37673 098.0113 187.5398 0001421 114.8520 359.9955 14.72306220164047
1 37673U 11024A   14181.66498473  .00000156  00000-0  32543-4 0  9999
2 37673 098.0113 188.6824 0001414 113.8055 021.4405 14.72307238164217
1 37673U 11024A   14183.07343782  .00000259  00000-0  48841-4 0  9990
2 37673 098.0113 190.0706 0001426 113.6254 282.3504 14.72308626164428
1 37673U 11024A   14184.51550296  .00000376  00000-0  67299-4 0  9998
2 37673 098.0112 191.4921 0001465 115.6990 359.0612 14.72309819164633
1 37673U 11024A   14185.67445150  .00000401  00000-0  71284-4 0  9996
2 37673 098.0111 192.6346 0001453 114.3784 019.4715 14.72311327164807
1 37673U 11024A   14187.08420122  .00000369  00000-0  66238-4 0  9991
2 37673 098.0110 194.0243 0001468 114.7101 286.7581 14.72313653165019
1 37673U 11024A   14188.10375586  .00000427  00000-0  75326-4 0  9991
2 37673 098.0110 195.0293 0001476 114.4735 287.7094 14.72315124165165
1 37673U 11024A   14189.12310554  .00000484  00000-0  84414-4 0  9999
2 37673 098.0110 196.0341 0001477 113.7463 288.0708 14.72317278165316
1 37673U 11024A   14190.14289374  .00000490  00000-0  85360-4 0  9996
2 37673 098.0111 197.0393 0001500 114.5242 289.2560 14.72318781165461
1 37673U 11024A   14191.51574471  .00000432  00000-0  76132-4 0  9996
2 37673 098.0113 198.3925 0001527 114.6108 001.3652 14.72320925165669
1 37673U 11024A   14192.60850205  .00000401  00000-0  71198-4 0  9992
2 37673 098.0114 199.4696 0001525 113.6271 030.8569 14.72321730165822
1 37673U 11024A   14193.62640995  .00000323  00000-0  58899-4 0  9994
2 37673 098.0115 200.4729 0001546 114.2740 022.2315 14.72322836165972
1 37673U 11024A   14194.64602256  .00000248  00000-0  46973-4 0  9991
2 37673 098.0117 201.4779 0001568 114.8241 022.7378 14.72323814166125
1 37673U 11024A   14195.66498203  .00000227  00000-0  43686-4 0  9994
2 37673 098.0118 202.4824 0001560 113.0719 022.0925 14.72323986166278
1 37673U 11024A   14197.14286135  .00000212  00000-0  41379-4 0  9999
2 37673 098.0118 203.9391 0001605 114.6116 289.1327 14.72324572166499
1 37673U 11024A   14198.45613831  .00000190  00000-0  37892-4 0  9991
2 37673 098.0117 205.2337 0001614 113.4878 046.9123 14.72325009166685
1 37673U 11024A   14199.47463267  .00000160  00000-0  33162-4 0  9993
2 37673 098.0116 206.2377 0001609 112.2952 043.2484 14.72325203166836
1 37673U 11024A   14200.49504596  .00000087  00000-0  21511-4 0  9992
2 37673 098.0115 207.2437 0001621 111.9478 048.9030 14.72325870166981
1 37673U 11024A   14201.64606123  .00000107  00000-0  24784-4 0  9997
2 37673 098.0115 208.3783 0001635 111.4473 026.5361 14.72326171167156
1 37673U 11024A   14202.66494135  .00000117  00000-0  26371-4 0  9993
2 37673 098.0114 209.3827 0001650 112.0229 023.1518 14.72326493167309
1 37673U 11024A   14203.68316006  .00000108  00000-0  24894-4 0  9994
2 37673 098.0114 210.3864 0001664 112.4999 016.3629 14.72326841167455
1 37673U 11024A   14205.09378226  .00000095  00000-0  22842-4 0  9999
2 37673 098.0115 211.7769 0001690 112.8841 288.2986 14.72327401167666
1 37673U 11024A   14206.47458699  .00000120  00000-0  26763-4 0  9990
2 37673 098.0118 213.1379 0001679 110.4481 045.1103 14.72327658167860
1 37673U 11024A   14207.48707808  .00000148  00000-0  31235-4 0  9991
2 37673 098.0119 214.1359 0001681 109.3862 009.5231 14.72328178168015
1 37673U 11024A   14208.50587132  .00000181  00000-0  36449-4 0  9990
2 37673 098.0120 215.1400 0001706 110.3296 005.3164 14.72328929168165
1 37673U 11024A   14209.66489094  .00000322  00000-0  58698-4 0  9993
2 37673 098.0122 216.2825 0001697 108.7548 026.4385 14.72329389168339
1 37673U 11024A   14210.68291938  .00000363  00000-0  65278-4 0  9992
2 37673 098.0123 217.2860 0001687 107.7344 020.1507 14.72329774168483
1 37673U 11024A   14212.09364556  .00000259  00000-0  48688-4 0  9996
2 37673 098.0123 218.6766 0001708 109.0243 291.7478 14.72331357168696
1 37673U 11024A   14213.11292076  .00000379  00000-0  67782-4 0  9996
2 37673 098.0123 219.6815 0001694 108.0589 292.0153 14.72332054168844
1 37673U 11024A   14214.49314778  .00000460  00000-0  80566-4 0  9998
2 37673 098.0123 221.0423 0001686 106.3897 045.0233 14.72333914169044
1 37673U 11024A   14215.50576150  .00000407  00000-0  72118-4 0  9990
2 37673 098.0123 222.0406 0001699 107.2715 008.1639 14.72335986169196
1 37673U 11024A   14218.14267113  .00000466  00000-0  81510-4 0  9990
2 37673 098.0122 224.6404 0001716 108.2187 295.4991 14.72338284169584
1 37673U 11024A   14219.51532993  .00000417  00000-0  73690-4 0  9999
2 37673 098.0122 225.9934 0001704 105.0392 009.9581 14.72339570169780
1 37673U 11024A   14220.67420784  .00000241  00000-0  45840-4 0  9993
2 37673 098.0123 227.1359 0001690 104.6728 029.1645 14.72341045169952
1 37673U 11024A   14221.06554637  .00000372  00000-0  66723-4 0  9990
2 37673 098.0122 227.5217 0001531 107.1520 299.6212 14.72291143170016
1 37673U 11024A   14222.08389876  .00000327  00000-0  59484-4 0  9990
2 37673 098.0126 228.5254 0001488 107.2234 293.8149 14.72291094170162
1 37673U 11024A   14223.10374858  .00000292  00000-0  53986-4 0  9990
2 37673 098.0127 229.5305 0001488 107.1132 296.1259 14.72292053170318
1 37673U 11024A   14225.49627381  .00000163  00000-0  33678-4 0  9999
2 37673 098.0129 231.8889 0001494 106.9625 009.6214 14.72293712170663
1 37673U 11024A   14226.65539494  .00000143  00000-0  30433-4 0  9999
2 37673 098.0129 233.0316 0001485 106.9184 029.6024 14.72293939170833
1 37673U 11024A   14227.67433192  .00000164  00000-0  33772-4 0  9992
2 37673 098.0128 234.0361 0001479 106.4261 027.4692 14.72294231170986
1 37673U 11024A   14227.92094883 -.00002236  00000-0  00000+0 0  9996
2 37673 098.0110 234.2798 0001487 088.6991 271.4880 14.72280183171075
1 37673U 11024A   14229.64590775  .00000225  00000-0  43347-4 0  9999
2 37673 098.0127 235.9799 0001489 107.0509 030.4095 14.72295098171279
1 37673U 11024A   14231.12303128  .00000261  00000-0  49168-4 0  9996
2 37673 098.0125 237.4361 0001476 106.7547 295.1303 14.72295908171499
1 37673U 11024A   14232.14282365  .00000233  00000-0  44603-4 0  9996
2 37673 098.0125 238.4414 0001491 108.3026 295.4931 14.72296995171640
1 37673U 11024A   14233.51562597  .00000190  00000-0  37881-4 0  9998
2 37673 098.0125 239.7947 0001495 108.4719 007.1576 14.72298309171845
1 37673U 11024A   14234.67441527  .00000243  00000-0  46292-4 0  9990
2 37673 098.0126 240.9370 0001481 106.9832 026.8446 14.72298592172012
1 37673U 11024A   14236.08409416  .00000208  00000-0  40752-4 0  9994
2 37673 098.0128 242.3265 0001482 106.6292 294.3786 14.72300024172227
1 37673U 11024A   14237.10373311  .00000249  00000-0  47259-4 0  9996
2 37673 098.0130 243.3315 0001479 106.4204 295.7002 14.72301040172375
1 37673U 11024A   14238.12309281  .00000271  00000-0  50739-4 0  9996
2 37673 098.0131 244.3364 0001468 106.2983 295.4590 14.72302172172524
